ROBUSTA-3A (MEDITERRAN*)
1 60243U 24128J   26062.83714353  .00013527  00000+0  81553-3 0  9994
2 60243  61.9856 220.3283 0052348 107.3332 253.3498 15.09915531 90500
LASARSAT                
1 62391U 24247Q   26063.17155153  .00042032  00000+0  10424-2 0  9998
2 62391  44.9765 129.4627 0002872 350.2653   9.8178 15.39752390 67091
CROCUBE                 
1 62394U 24247T   26063.20534325  .00044929  00000+0  10733-2 0  9997
2 62394  44.9726 127.9459 0003019 338.1177  21.9582 15.40856803 67110
