[{"OBJECT_NAME":"ROBUSTA-3A (MEDITERRANEE)","OBJECT_ID":"2024-128J","EPOCH":"2026-03-03T20:05:29.200992","MEAN_MOTION":15.09915531,"ECCENTRICITY":0.0052348,"INCLINATION":61.9856,"RA_OF_ASC_NODE":220.3283,"ARG_OF_PERICENTER":107.3332,"MEAN_ANOMALY":253.3498,"EPHEMERIS_TYPE":0,"CLASSIFICATION_TYPE":"U","NORAD_CAT_ID":60243,"ELEMENT_SET_NO":999,"REV_AT_EPOCH":9050,"BSTAR":0.00081553,"MEAN_MOTION_DOT":0.00013527,"MEAN_MOTION_DDOT":0},{"OBJECT_NAME":"LASARSAT","OBJECT_ID":"2024-247Q","EPOCH":"2026-03-04T04:07:02.052192","MEAN_MOTION":15.3975239,"ECCENTRICITY":0.0002872,"INCLINATION":44.9765,"RA_OF_ASC_NODE":129.4627,"ARG_OF_PERICENTER":350.2653,"MEAN_ANOMALY":9.8178,"EPHEMERIS_TYPE":0,"CLASSIFICATION_TYPE":"U","NORAD_CAT_ID":62391,"ELEMENT_SET_NO":999,"REV_AT_EPOCH":6709,"BSTAR":0.0010424,"MEAN_MOTION_DOT":0.00042032,"MEAN_MOTION_DDOT":0},{"OBJECT_NAME":"CROCUBE","OBJECT_ID":"2024-247T","EPOCH":"2026-03-04T04:55:41.656800","MEAN_MOTION":15.40856803,"ECCENTRICITY":0.0003019,"INCLINATION":44.9726,"RA_OF_ASC_NODE":127.9459,"ARG_OF_PERICENTER":338.1177,"MEAN_ANOMALY":21.9582,"EPHEMERIS_TYPE":0,"CLASSIFICATION_TYPE":"U","NORAD_CAT_ID":62394,"ELEMENT_SET_NO":999,"REV_AT_EPOCH":6711,"BSTAR":0.0010733,"MEAN_MOTION_DOT":0.00044929,"MEAN_MOTION_DDOT":0}]
